LEMUR-2-VALHALLA        
1 58900U 24022B   26201.85948288  .00011474  00000+0  28370-3 0  9994
2 58900  97.4081  52.2740 0008618   4.3557 355.7763 15.40595623137456
LEMUR-2-CAEL            
1 58903U 24022E   26201.84005021  .00012655  00000+0  29886-3 0  9990
2 58903  97.4058  53.2514 0006554 347.9089  12.2000 15.41973973137522
LEMUR-2-JOHNNYTRUONG    
1 59146U 24043BA  26201.91687064  .00033456  00000+0  37114-3 0  9999
2 59146  97.5400 355.7788 0003732  76.6375 283.5299 15.62877464133302
LEMUR-2-TOMATOKECHUP    
1 60471U 24149D   26201.77996646  .00006701  00000+0  18951-3 0  9993
2 60471  97.3785 283.9261 0003431 111.5100 248.6510 15.36651781107322
LEMUR-2-STELLA          
1 60533U 24149BT  26201.76364279  .00006585  00000+0  38266-3 0  9993
2 60533  97.6727 284.3799 0001383 122.2813 237.8552 15.12439052105575
LEMUR-2-MARHISYAM       
1 60536U 24149BW  26201.95530361  .00006575  00000+0  38841-3 0  9992
2 60536  97.6870 285.0551 0002206  61.2310 298.9141 15.11842816105588
LEMUR-2-AHMED-ASRAR     
1 60576U 24149DN  26201.88985907  .00007707  00000+0  43558-3 0  9997
2 60576  97.6996 287.2150 0001721 181.6001 178.5224 15.13381666105662
LEMUR-2-LLOYD           
1 60577U 24149DP  26201.84841122  .00007186  00000+0  44840-3 0  9990
2 60577  97.6730 283.0077 0004218  56.5433 303.6198 15.09809945105474
LEMUR-2-SQUIRRELCOMM    
1 60578U 24149DQ  26201.77932695  .00003857  00000+0  25845-3 0  9994
2 60578  97.6699 282.5908 0004006 299.4293  60.6535 15.07479136105460
LEMUR-2-SIERRINI        
1 60579U 24149DR  26201.85280073  .00007975  00000+0  47346-3 0  9995
2 60579  97.6829 284.6077 0006038  75.9770 284.2131 15.11580407105544
LEMUR-2-WILSON          
1 62694U 25009CP  26201.75608632  .00001371  00000+0  12963-3 0  9996
2 62694  97.7016 279.6322 0001611 291.2101  68.8947 14.95288693 82372
LEMUR-2-STAR-FOX        
1 62696U 25009CR  26201.78626918  .00004619  00000+0  34884-3 0  9992
2 62696  97.6899 283.1533 0001610  20.1847 339.9442 15.02884188 82609
LEMUR-2-ARIANNA         
1 62699U 25009CU  26201.71814555  .00004862  00000+0  36687-3 0  9997
2 62699  97.6840 282.8336 0001909  29.6722 330.4611 15.02887787 82592
LEMUR-2-ALISIA          
1 62706U 25009DB  26201.95555120  .00005293  00000+0  39544-3 0  9996
2 62706  97.6959 283.9056 0004915 113.8505 246.3236 15.03225167105232
LEMUR-2-ROUNDTRIPPER    
1 62711U 25009DG  26201.75713145  .00004512  00000+0  32850-3 0  9999
2 62711  97.7240 284.3978 0004434  53.7790 306.3845 15.04280173 82678
LEMUR-2-MYNAMEISJEFF    
1 62712U 25009DH  26201.95520839  .00005608  00000+0  40720-3 0  9990
2 62712  97.7287 284.9972 0004332  86.1884 273.9837 15.04275983 82708
